GALAXY 25 (G-25)        
1 24812U 97026A   22239.47892017 -.00000006  00000+0  00000+0 0  9992
2 24812   3.8629  82.9479 0002734  50.8395  80.4188  1.00271690 92446
INTELSAT 5 (IS-5)       
1 24916U 97046A   22239.46176132 -.00000063  00000+0  00000+0 0  9994
2 24916   7.3755  60.5575 0003947 124.1808 123.3133  1.00271967 91689
GALAXY 11 (G-11)        
1 26038U 99071A   22239.44717924 -.00000165  00000+0  00000+0 0  9992
2 26038   3.1811  86.8341 0000281 238.5752  78.1427  1.00271624 83146
INTELSAT 9 (IS-9)       
1 26451U 00043A   22239.40257560 -.00000288  00000+0  00000+0 0  9999
2 26451   7.3597  60.7336 0002182 108.9917 260.8403  1.00272070 30212
INTELSAT 1R (IS-1R)     
1 26608U 00072A   22239.45125299 -.00000141  00000+0  00000+0 0  9991
2 26608   4.6357  79.9896 0000601 311.0985 264.1159  1.00272000 27381
INTELSAT 10 (IS-10)     
1 26766U 01019A   22239.47562546  .00000033  00000+0  00000+0 0  9999
2 26766   5.7409  72.7582 0002187  70.7488 181.2114  1.00271882 77996
INTELSAT 901 (IS-901)   
1 26824U 01024A   22239.46025929 -.00000205  00000+0  00000+0 0  9990
2 26824   0.0519 279.8727 0000955 253.6747 300.3221  1.00271524  9040
INTELSAT 902 (IS-902)   
1 26900U 01039A   22239.45572487 -.00000285  00000+0  00000+0 0  9994
2 26900   2.5793  88.2372 0002586  72.7342 288.6638  1.00271059 76763
INTELSAT 904 (IS-904)   
1 27380U 02007A   22239.39563185 -.00000216  00000+0  00000+0 0  9995
2 27380   3.4092  85.1947 0002923  83.2379 280.0977  1.00271073 37837
DIRECTV 5 (TEMPO 1)     
1 27426U 02023A   22239.46984216 -.00000058  00000+0  00000+0 0  9998
2 27426   1.3025  92.4064 0003189  70.0067 232.2925  1.00272190 74187
INTELSAT 905 (IS-905)   
1 27438U 02027A   22239.46078250 -.00000187  00000+0  00000+0 0  9990
2 27438   3.2311  85.9300 0002630  80.1971 310.9263  1.00270803 37430
GALAXY 3C (G-3C)        
1 27445U 02030A   22239.37502491 -.00000155  00000+0  00000+0 0  9996
2 27445   0.1501  85.0708 0000477 207.9674  82.7217  1.00272383 32550
INTELSAT 906 (IS-906)   
1 27513U 02041A   22239.47848418  .00000011  00000+0  00000+0 0  9997
2 27513   2.2482  89.6997 0003088  68.4797  53.9054  1.00272858 73094
GALAXY 12 (G-12)        
1 27715U 03013B   22239.44824611  .00000056  00000+0  00000+0 0  9996
2 27715   3.4421  84.8329 0001869  88.3471 194.8463  1.00272184 38154
GALAXY 23 (G-23)        
1 27854U 03034A   22239.52819021  .00000011  00000+0  00000+0 0  9992
2 27854   0.0471 261.8860 0003082 264.9497 238.0600  1.00272432 69808
GALAXY 13 (HORIZONS-1)  
1 27954U 03044A   22239.44962260  .00000045  00000+0  00000+0 0  9996
2 27954   0.0307 102.7871 0000102 151.1610 116.5669  1.00273143 32632
INTELSAT 10-02          
1 28358U 04022A   22239.40257605 -.00000014  00000+0  00000+0 0  9995
2 28358   0.0474 279.0974 0000675 258.8950 301.5625  1.00271205 66615
XM-3 (RHYTHM)           
1 28626U 05008A   22239.44874884 -.00000208  00000+0  00000+0 0  9991
2 28626   0.0214 148.5895 0001458  30.7750 232.7492  1.00268317 28684
DIRECTV 8               
1 28659U 05019A   22239.45978010 -.00000002  00000+0  00000+0 0  9998
2 28659   0.0144 116.0491 0002728  53.0405 213.0577  1.00272737 63136
GALAXY 28 (G-28)        
1 28702U 05022A   22239.44796404 -.00000188  00000+0  00000+0 0  9990
2 28702   0.0169  65.8747 0002568  81.7206 260.3151  1.00271039 38045
GALAXY 14 (G-14)        
1 28790U 05030A   22239.27618812  .00000152  00000+0  00000+0 0  9993
2 28790   1.4355  91.5135 0001885  62.7402 313.5468  1.00271808 62378
GALAXY 15 (G-15)        
1 28884U 05041A   22239.50087894  .00000075  00000+0  00000+0 0  9999
2 28884   0.0123  44.8576 0001850 125.0983 213.2336  1.00277606 61673
SPACEWAY 2              
1 28903U 05046B   22239.53191039  .00000101  00000+0  00000+0 0  9996
2 28903   2.0629  87.2320 0000213 340.7760 320.3229  1.00272326 37406
GALAXY 16 (G-16)        
1 29236U 06023A   22239.44595844 -.00000129  00000+0  00000+0 0  9995
2 29236   0.0548 278.1132 0002560 240.3438 238.7438  1.00272307 59036
DIRECTV 9S              
1 29494U 06043A   22239.44552243 -.00000116  00000+0  00000+0 0  9995
2 29494   0.0104 128.7198 0002823  34.1354 231.9873  1.00271505 37448
XM-4 (BLUES)            
1 29520U 06049A   22239.44874884 -.00000208  00000+0  00000+0 0  9991
2 29520   0.0674 303.1885 0001738  14.1928  94.7090  1.00272573 37533
GALAXY 17 (G-17)        
1 31307U 07016B   22239.44752803 -.00000177  00000+0  00000+0 0  9993
2 31307   0.0140 101.3061 0002706  72.6248 231.8408  1.00271935 55865
DIRECTV 10              
1 31862U 07032A   22239.44517362 -.00000105  00000+0  00000+0 0  9997
2 31862   0.0372 277.4303 0000149 314.3547 161.3284  1.00271475 31658
SPACEWAY 3              
1 32018U 07036A   22239.44674323 -.00000154  00000+0  00000+0 0  9990
2 32018   0.4016  90.2449 0000194  13.4370 297.8500  1.00271831 32613
INTELSAT 11 (IS-11)     
1 32253U 07044B   22239.45712008 -.00000271  00000+0  00000+0 0  9994
2 32253   0.0127 103.7993 0001709  70.2907 283.1558  1.00271861 54569
HORIZONS-2              
1 32388U 07063B   22239.39007747 -.00000222  00000+0  00000+0 0  9990
2 32388   0.0235  90.3424 0003311  16.2441 349.5636  0.99713841 53886
DIRECTV 11              
1 32729U 08013A   22239.44595844 -.00000128  00000+0  00000+0 0  9996
2 32729   0.0026 278.4308 0000096 227.5387 251.0456  1.00272033 31650
GALAXY 18 (G-18)        
1 32951U 08024A   22239.45469949  .00000023  00000+0  00000+0 0  9995
2 32951   0.0247 139.8382 0003094  27.2536 209.2642  1.00270355 31912
INTELSAT 25 (IS-25)     
1 33153U 08034A   22239.39563185 -.00000226  00000+0  00000+0 0  9997
2 33153   0.0108 146.9248 0003342  20.9932 278.6028  1.00272397 51759
GALAXY 19 (G-19)        
1 33376U 08045A   22239.44639444 -.00000142  00000+0  00000+0 0  9991
2 33376   0.0558 283.8918 0002885 230.0780 245.3903  1.00273085 50966
FM-5                    
1 35493U 09034A   22239.44848726 -.00000203  00000+0  00000+0 0  9995
2 35493   0.0206 136.0832 0000607 242.3131  32.5755  1.00270494 32702
INTELSAT 14 (IS-14)     
1 36097U 09064A   22239.45668407 -.00000276  00000+0  00000+0 0  9996
2 36097   0.0170 114.3014 0002408  52.2327 288.5539  1.00273155 46660
INTELSAT 15 (IS-15)     
1 36106U 09067A   22239.48266979 -.00000188  00000+0  00000+0 0  9993
2 36106   0.0157 121.9356 0002178  31.9490  80.7180  1.00269688 27296
DIRECTV 12              
1 36131U 09075A   22239.44526083 -.00000106  00000+0  00000+0 0  9991
2 36131   0.0439 288.2581 0000247 325.7628 139.2207  1.00272375 32626
INTELSAT 16 (IS-16)     
1 36397U 10006A   22239.45049285 -.00000247  00000+0  00000+0 0  9992
2 36397   0.0166 129.5887 0002058  25.9738 266.0841  1.00269160 45711
XM-5                    
1 37185U 10053A   22239.46476531 -.00000025  00000+0  00000+0 0  9993
2 37185   0.0222 139.2544 0000926 241.2560   7.2874  1.00268577 43547
INTELSAT 17 (IS-17)     
1 37238U 10065B   22239.47883299 -.00000004  00000+0  00000+0 0  9996
2 37238   0.0306 215.8393 0002628 307.7448  50.4633  1.00271304 39300
INTELSAT NEW DAWN       
1 37392U 11016A   22239.38591074  .00000153  00000+0  00000+0 0  9995
2 37392   0.0148 144.8401 0000860 358.0373   4.4532  1.00272929 39354
INTELSAT 18 (IS-18)     
1 37834U 11056A   22239.47962432  .00000050  00000+0  00000+0 0  9996
2 37834   0.0283  25.3051 0002209 138.2581 164.7866  1.00272971 39871
INTELSAT 22 (IS-22)     
1 38098U 12011A   22239.48005378 -.00000062  00000+0  00000+0 0  9993
2 38098   0.0056 143.1088 0002851  26.1849  51.3078  1.00272143 37882
INTELSAT 19 (IS-19)     
1 38356U 12030A   22239.49880185 -.00000059  00000+0  00000+0 0  9995
2 38356   0.0129 110.8499 0003101  52.9735 157.4627  1.00272580 36508
INTELSAT 20 (IS-20)     
1 38740U 12043A   22239.37271524 -.00000028  00000+0  00000+0 0  9990
2 38740   0.0205 131.8269 0001622  51.5505 354.8653  1.00272178 36813
INTELSAT 21 (IS-21)     
1 38749U 12045A   22239.45466080 -.00000287  00000+0  00000+0 0  9990
2 38749   0.0130 106.7252 0002172  57.7284 276.8947  1.00272821 36594
INTELSAT 23 (IS-23)     
1 38867U 12057A   22239.35466069 -.00000287  00000+0  00000+0 0  9990
2 38867   0.0118 172.2296 0001104 193.1182  44.9015  1.00274236 36001
FM-6                    
1 39360U 13058A   22239.01206583 -.00000020  00000+0  00000+0 0  9992
2 39360   0.0518 271.2174 0000492 128.3065 183.8833  1.00272973 32124
INTELSAT 30 (IS-30)     
1 40271U 14062A   22239.30328152 -.00000153  00000+0  00000+0 0  9997
2 40271   0.0192 151.3970 0002048 284.5689 273.6812  1.00270173 28640
DIRECTV 14              
1 40333U 14078B   22239.44595844 -.00000128  00000+0  00000+0 0  9994
2 40333   0.0185 110.7459 0000425 131.6935 154.5476  1.00268451 28127
DIRECTV 15              
1 40663U 15026A   22239.44517362 -.00000105  00000+0  00000+0 0  9998
2 40663   0.0147 110.0545 0000640 250.7553  32.2368  1.00273059 26522
SKY MEXICO-1            
1 40664U 15026B   22239.44996965 -.00000237  00000+0  00000+0 0  9995
2 40664   0.0155  95.1387 0001993  76.6886 247.0517  1.00271764 26517
INTELSAT 34 (IS-34)     
1 40874U 15039A   22239.45467847 -.00000288  00000+0  00000+0 0  9991
2 40874   0.0491 298.6299 0000832  86.9329  58.2934  1.00271563 25681
INTELSAT 31 (IS-31)     
1 41581U 16035A   22239.30328152 -.00000159  00000+0  00000+0 0  9990
2 41581   0.0175 196.8563 0002113 314.4662 198.3286  1.00308703 22750
INTELSAT 36 (IS-36)     
1 41747U 16053A   22239.37271524 -.00000027  00000+0  00000+0 0  9995
2 41747   0.0213 112.2877 0002817 246.8632 179.1132  1.00269904 22018
INTELSAT 33E (IS-33E)   
1 41748U 16053B   22239.47769937  .00000046  00000+0  00000+0 0  9997
2 41748   0.0172 124.8884 0001603 102.3870 340.3714  1.00270219 22314
INTELSAT 32E (IS-32E)   
1 41945U 17007B   22239.45712008 -.00000272  00000+0  00000+0 0  9993
2 41945   0.0134 111.0786 0000180 251.6584  94.3053  1.00270482 20298
INTELSAT 35E (IS-35E)   
1 42818U 17041A   22239.45877689 -.00000240  00000+0  00000+0 0  9993
2 42818   0.0151 119.4202 0001668  30.1650 316.7489  1.00271786 18882
INTELSAT 37E (IS-37E)   
1 42950U 17059A   22239.43382669 -.00000143  00000+0  00000+0 0  9998
2 42950   0.0125 118.3898 0002507  43.3110 312.1133  1.00272967 18135
AZERSPACE 2 (IS-38)     
1 43632U 18074A   22239.47464736  .00000134  00000+0  00000+0 0  9993
2 43632   0.0145 115.4937 0001347  45.9738  30.1915  1.00270779 14514
HORIZONS-3E             
1 43633U 18074B   22239.46617209 -.00000034  00000+0  00000+0 0  9998
2 43633   0.0073   0.7657 0001831 303.7132   8.0099  1.00271245 14405
AT&T T-16               
1 44333U 19034A   22239.44560963 -.00000117  00000+0  00000+0 0  9997
2 44333   0.0209 147.8631 0001044 220.0209  27.3285  1.00267262 11694
INTELSAT 39 (IS-39)     
1 44476U 19049B   22239.35049378  .00000031  00000+0  00000+0 0  9997
2 44476   0.0242 137.1083 0000903 204.7136 181.8590  1.00269552 11209
GALAXY 30 (G-30)        
1 46114U 20056C   22239.45300281  .00000035  00000+0  00000+0 0  9996
2 46114   0.0246 139.2323 0002182  26.6794 207.8272  1.00269683  7358
